STARLINK-30803          
1 58157U 23166H   26068.72492175  .00000230  00000+0  19910-4 0  9991
2 58157  53.1605 219.5071 0001194  81.5677 278.5459 15.30189116133037
ION SCV-017             
1 63230U 25052W   26068.71648816  .00006457  00000+0  24539-3 0  9998
2 63230  97.4016 324.7516 0023746  44.9875 315.3282 15.26881798 54851
